CCSDS_OMM_VERS = 2.0
CREATION_DATE  = 
ORIGINATOR     = 

OBJECT_NAME    = HTV-X1
OBJECT_ID      = 2025-241A
CENTER_NAME    = EARTH
REF_FRAME      = TEME
TIME_SYSTEM    = UTC
MEAN_ELEMENT_THEORY = SGP/SGP4

EPOCH          = 2026-04-01T12:57:04.456224
MEAN_MOTION    = 15.32489575
ECCENTRICITY   = .0007227
INCLINATION    = 51.6374
RA_OF_ASC_NODE = 322.9356
ARG_OF_PERICENTER = 261.2485
MEAN_ANOMALY   = 98.7678

EPHEMERIS_TYPE = 0
CLASSIFICATION_TYPE = U
NORAD_CAT_ID   = 66174
ELEMENT_SET_NO = 999
REV_AT_EPOCH   = 2444
BSTAR          = .51596E-4
MEAN_MOTION_DOT = .1271E-4
MEAN_MOTION_DDOT = 0

CCSDS_OMM_VERS = 2.0
CREATION_DATE  = 
ORIGINATOR     = 

OBJECT_NAME    = SZ-21 MODULE
OBJECT_ID      = 2025-246C
CENTER_NAME    = EARTH
REF_FRAME      = TEME
TIME_SYSTEM    = UTC
MEAN_ELEMENT_THEORY = SGP/SGP4

EPOCH          = 2026-04-01T06:45:24.481440
MEAN_MOTION    = 15.70350675
ECCENTRICITY   = .000248
INCLINATION    = 41.4741
RA_OF_ASC_NODE = 64.1049
ARG_OF_PERICENTER = 219.0022
MEAN_ANOMALY   = 141.0642

EPHEMERIS_TYPE = 0
CLASSIFICATION_TYPE = U
NORAD_CAT_ID   = 66515
ELEMENT_SET_NO = 999
REV_AT_EPOCH   = 2162
BSTAR          = .33251E-3
MEAN_MOTION_DOT = .41682E-3
MEAN_MOTION_DDOT = 0

CCSDS_OMM_VERS = 2.0
CREATION_DATE  = 
ORIGINATOR     = 

OBJECT_NAME    = SHENZHOU-22
OBJECT_ID      = 2025-272A
CENTER_NAME    = EARTH
REF_FRAME      = TEME
TIME_SYSTEM    = UTC
MEAN_ELEMENT_THEORY = SGP/SGP4

EPOCH          = 2026-04-01T08:38:43.102176
MEAN_MOTION    = 15.61804306
ECCENTRICITY   = .0003722
INCLINATION    = 41.4670
RA_OF_ASC_NODE = 70.0996
ARG_OF_PERICENTER = 85.9086
MEAN_ANOMALY   = 274.2179

EPHEMERIS_TYPE = 0
CLASSIFICATION_TYPE = U
NORAD_CAT_ID   = 66645
ELEMENT_SET_NO = 999
REV_AT_EPOCH   = 28141
BSTAR          = .27286E-3
MEAN_MOTION_DOT = .24066E-3
MEAN_MOTION_DDOT = 0

CCSDS_OMM_VERS = 2.0
CREATION_DATE  = 
ORIGINATOR     = 

OBJECT_NAME    = SOYUZ-MS 28
OBJECT_ID      = 2025-275A
CENTER_NAME    = EARTH
REF_FRAME      = TEME
TIME_SYSTEM    = UTC
MEAN_ELEMENT_THEORY = SGP/SGP4

EPOCH          = 2026-04-01T21:00:31.001184
MEAN_MOTION    = 15.48704904
ECCENTRICITY   = .0006234
INCLINATION    = 51.6332
RA_OF_ASC_NODE = 317.7346
ARG_OF_PERICENTER = 261.1210
MEAN_ANOMALY   = 98.9072

EPHEMERIS_TYPE = 0
CLASSIFICATION_TYPE = U
NORAD_CAT_ID   = 66664
ELEMENT_SET_NO = 999
REV_AT_EPOCH   = 56001
BSTAR          = .16662E-3
MEAN_MOTION_DOT = .8649E-4
MEAN_MOTION_DDOT = 0

CCSDS_OMM_VERS = 2.0
CREATION_DATE  = 
ORIGINATOR     = 

OBJECT_NAME    = DUPLEX
OBJECT_ID      = 1998-067XS
CENTER_NAME    = EARTH
REF_FRAME      = TEME
TIME_SYSTEM    = UTC
MEAN_ELEMENT_THEORY = SGP/SGP4

EPOCH          = 2026-04-01T02:46:01.590816
MEAN_MOTION    = 15.57724655
ECCENTRICITY   = .00030674
INCLINATION    = 51.6289
RA_OF_ASC_NODE = 317.1598
ARG_OF_PERICENTER = 216.2059
MEAN_ANOMALY   = 143.8726

EPHEMERIS_TYPE = 0
CLASSIFICATION_TYPE = U
NORAD_CAT_ID   = 66906
ELEMENT_SET_NO = 999
REV_AT_EPOCH   = 1862
BSTAR          = .45047471E-3
MEAN_MOTION_DOT = .33711E-3
MEAN_MOTION_DDOT = 0

CCSDS_OMM_VERS = 2.0
CREATION_DATE  = 
ORIGINATOR     = 

OBJECT_NAME    = ISS OBJECT XT
OBJECT_ID      = 1998-067XT
CENTER_NAME    = EARTH
REF_FRAME      = TEME
TIME_SYSTEM    = UTC
MEAN_ELEMENT_THEORY = SGP/SGP4

EPOCH          = 2026-04-01T21:24:26.653824
MEAN_MOTION    = 15.78433810
ECCENTRICITY   = .000675
INCLINATION    = 51.6226
RA_OF_ASC_NODE = 306.5524
ARG_OF_PERICENTER = 231.8821
MEAN_ANOMALY   = 128.1571

EPHEMERIS_TYPE = 0
CLASSIFICATION_TYPE = U
NORAD_CAT_ID   = 66907
ELEMENT_SET_NO = 999
REV_AT_EPOCH   = 1883
BSTAR          = .14895E-2
MEAN_MOTION_DOT = .271653E-2
MEAN_MOTION_DDOT = 0

CCSDS_OMM_VERS = 2.0
CREATION_DATE  = 
ORIGINATOR     = 

OBJECT_NAME    = ISS OBJECT XU
OBJECT_ID      = 1998-067XU
CENTER_NAME    = EARTH
REF_FRAME      = TEME
TIME_SYSTEM    = UTC
MEAN_ELEMENT_THEORY = SGP/SGP4

EPOCH          = 2026-04-01T21:17:58.200288
MEAN_MOTION    = 15.78743702
ECCENTRICITY   = .0006971
INCLINATION    = 51.6227
RA_OF_ASC_NODE = 306.5178
ARG_OF_PERICENTER = 231.5533
MEAN_ANOMALY   = 128.4842

EPHEMERIS_TYPE = 0
CLASSIFICATION_TYPE = U
NORAD_CAT_ID   = 66908
ELEMENT_SET_NO = 999
REV_AT_EPOCH   = 1883
BSTAR          = .15333E-2
MEAN_MOTION_DOT = .284033E-2
MEAN_MOTION_DDOT = 0

CCSDS_OMM_VERS = 2.0
CREATION_DATE  = 
ORIGINATOR     = 

OBJECT_NAME    = SILVERSAT
OBJECT_ID      = 1998-067XV
CENTER_NAME    = EARTH
REF_FRAME      = TEME
TIME_SYSTEM    = UTC
MEAN_ELEMENT_THEORY = SGP/SGP4

EPOCH          = 2026-04-01T00:09:49.991904
MEAN_MOTION    = 15.84315758
ECCENTRICITY   = .00080265
INCLINATION    = 51.6192
RA_OF_ASC_NODE = 309.6226
ARG_OF_PERICENTER = 232.8926
MEAN_ANOMALY   = 127.1344

EPHEMERIS_TYPE = 0
CLASSIFICATION_TYPE = U
NORAD_CAT_ID   = 66909
ELEMENT_SET_NO = 999
REV_AT_EPOCH   = 1871
BSTAR          = .15922283E-2
MEAN_MOTION_DOT = .386729E-2
MEAN_MOTION_DDOT = 0

CCSDS_OMM_VERS = 2.0
CREATION_DATE  = 
ORIGINATOR     = 

OBJECT_NAME    = ISS OBJECT XW
OBJECT_ID      = 1998-067XW
CENTER_NAME    = EARTH
REF_FRAME      = TEME
TIME_SYSTEM    = UTC
MEAN_ELEMENT_THEORY = SGP/SGP4

EPOCH          = 2026-04-01T00:22:43.365216
MEAN_MOTION    = 15.76293505
ECCENTRICITY   = .0006908
INCLINATION    = 51.6214
RA_OF_ASC_NODE = 311.1958
ARG_OF_PERICENTER = 221.9549
MEAN_ANOMALY   = 138.0922

EPHEMERIS_TYPE = 0
CLASSIFICATION_TYPE = U
NORAD_CAT_ID   = 66910
ELEMENT_SET_NO = 999
REV_AT_EPOCH   = 1869
BSTAR          = .12822E-2
MEAN_MOTION_DOT = .210998E-2
MEAN_MOTION_DDOT = 0

CCSDS_OMM_VERS = 2.0
CREATION_DATE  = 
ORIGINATOR     = 

OBJECT_NAME    = ISS OBJECT XX
OBJECT_ID      = 1998-067XX
CENTER_NAME    = EARTH
REF_FRAME      = TEME
TIME_SYSTEM    = UTC
MEAN_ELEMENT_THEORY = SGP/SGP4

EPOCH          = 2026-04-01T21:00:05.872608
MEAN_MOTION    = 15.93473578
ECCENTRICITY   = .0010278
INCLINATION    = 51.6164
RA_OF_ASC_NODE = 303.3744
ARG_OF_PERICENTER = 244.1070
MEAN_ANOMALY   = 115.8878

EPHEMERIS_TYPE = 0
CLASSIFICATION_TYPE = U
NORAD_CAT_ID   = 66911
ELEMENT_SET_NO = 999
REV_AT_EPOCH   = 1886
BSTAR          = .17622E-2
MEAN_MOTION_DOT = .647261E-2
MEAN_MOTION_DDOT = .18197E-3

CCSDS_OMM_VERS = 2.0
CREATION_DATE  = 
ORIGINATOR     = 

OBJECT_NAME    = ISS OBJECT XY
OBJECT_ID      = 1998-067XY
CENTER_NAME    = EARTH
REF_FRAME      = TEME
TIME_SYSTEM    = UTC
MEAN_ELEMENT_THEORY = SGP/SGP4

EPOCH          = 2026-04-01T20:57:40.514976
MEAN_MOTION    = 15.68620827
ECCENTRICITY   = .0004752
INCLINATION    = 51.6257
RA_OF_ASC_NODE = 309.4565
ARG_OF_PERICENTER = 225.3322
MEAN_ANOMALY   = 134.7288

EPHEMERIS_TYPE = 0
CLASSIFICATION_TYPE = U
NORAD_CAT_ID   = 66912
ELEMENT_SET_NO = 999
REV_AT_EPOCH   = 1878
BSTAR          = .10364E-2
MEAN_MOTION_DOT = .121475E-2
MEAN_MOTION_DDOT = 0

CCSDS_OMM_VERS = 2.0
CREATION_DATE  = 
ORIGINATOR     = 

OBJECT_NAME    = KNACKSAT-2
OBJECT_ID      = 1998-067XZ
CENTER_NAME    = EARTH
REF_FRAME      = TEME
TIME_SYSTEM    = UTC
MEAN_ELEMENT_THEORY = SGP/SGP4

EPOCH          = 2026-03-31T23:54:00.274464
MEAN_MOTION    = 15.53721795
ECCENTRICITY   = .00102403
INCLINATION    = 51.6314
RA_OF_ASC_NODE = 320.8633
ARG_OF_PERICENTER = 267.3943
MEAN_ANOMALY   = 92.5875

EPHEMERIS_TYPE = 0
CLASSIFICATION_TYPE = U
NORAD_CAT_ID   = 67683
ELEMENT_SET_NO = 999
REV_AT_EPOCH   = 825
BSTAR          = .70857037E-3
MEAN_MOTION_DOT = .46098E-3
MEAN_MOTION_DDOT = 0

